{
  "type": "FeatureCollection",
  "features": [
    {
      "type": "Feature",
      "properties": {
        "norad_id": 34088,
        "name": "IRIDIUM 33 DEB",
        "group": "iridium-33-debris",
        "lat": 48.915777089268616,
        "lon": 29.171423882247023,
        "alt_km": 587.4942470349879,
        "timestamp": "2025-12-25T03:55:56.751573+00:00",
        "meta_object_name": "IRIDIUM 33 DEB",
        "meta_object_id": "1997-051CX",
        "meta_epoch": "2025-12-24T20:27:16.688736",
        "meta_mean_motion": 14.91914263,
        "meta_eccentricity": 0.0007009,
        "meta_inclination": 86.384,
        "meta_ra_of_asc_node": 25.1553,
        "meta_arg_of_pericenter": 138.8061,
        "meta_mean_anomaly": 38.0669,
        "meta_ephemeris_type": 0,
        "meta_classification_type": "U",
        "meta_norad_cat_id": 34088,
        "meta_element_set_no": 999,
        "meta_rev_at_epoch": 88922,
        "meta_bstar": 0.0024721,
        "meta_mean_motion_dot": 0.00025093,
        "meta_mean_motion_ddot": 0,
        "tle_line1": "1 34088U 97051CX  25358.85227649  .00025093  00000+0  24721-2 0  9997",
        "tle_line2": "2 34088  86.3840  25.1553 0007009 138.8061  38.0669 14.91914263889229"
      },
      "geometry": {
        "type": "Point",
        "coordinates": [
          29.171423882247023,
          48.915777089268616
        ]
      }
    },
    {
      "type": "Feature",
      "properties": {
        "norad_id": 34091,
        "name": "IRIDIUM 33 DEB",
        "group": "iridium-33-debris",
        "lat": 4.820089725450635,
        "lon": -119.16936229773215,
        "alt_km": 616.4404027480869,
        "timestamp": "2025-12-25T03:55:56.751584+00:00",
        "meta_object_name": "IRIDIUM 33 DEB",
        "meta_object_id": "1997-051DA",
        "meta_epoch": "2025-12-24T15:48:13.781376",
        "meta_mean_motion": 14.82675579,
        "meta_eccentricity": 0.003427,
        "meta_inclination": 86.3409,
        "meta_ra_of_asc_node": 61.3716,
        "meta_arg_of_pericenter": 250.5713,
        "meta_mean_anomaly": 109.1805,
        "meta_ephemeris_type": 0,
        "meta_classification_type": "U",
        "meta_norad_cat_id": 34091,
        "meta_element_set_no": 999,
        "meta_rev_at_epoch": 88043,
        "meta_bstar": 0.0050216,
        "meta_mean_motion_dot": 0.00041111,
        "meta_mean_motion_ddot": 0,
        "tle_line1": "1 34091U 97051DA  25358.65849284  .00041111  00000+0  50216-2 0  9991",
        "tle_line2": "2 34091  86.3409  61.3716 0034270 250.5713 109.1805 14.82675579880433"
      },
      "geometry": {
        "type": "Point",
        "coordinates": [
          -119.16936229773215,
          4.820089725450635
        ]
      }
    },
    {
      "type": "Feature",
      "properties": {
        "norad_id": 34097,
        "name": "IRIDIUM 33 DEB",
        "group": "iridium-33-debris",
        "lat": 73.98641508304594,
        "lon": 162.5342513231682,
        "alt_km": 815.5141062076991,
        "timestamp": "2025-12-25T03:55:56.751594+00:00",
        "meta_object_name": "IRIDIUM 33 DEB",
        "meta_object_id": "1997-051DG",
        "meta_epoch": "2025-12-24T00:39:48.601440",
        "meta_mean_motion": 14.34864137,
        "meta_eccentricity": 0.00814826,
        "meta_inclination": 86.2003,
        "meta_ra_of_asc_node": 356.4244,
        "meta_arg_of_pericenter": 325.2171,
        "meta_mean_anomaly": 34.3712,
        "meta_ephemeris_type": 0,
        "meta_classification_type": "U",
        "meta_norad_cat_id": 34097,
        "meta_element_set_no": 999,
        "meta_rev_at_epoch": 87281,
        "meta_bstar": 0.0015312665,
        "meta_mean_motion_dot": 4.532e-05,
        "meta_mean_motion_ddot": 0,
        "tle_line1": "1 34097U 97051DG  25358.02764585  .00004532  00000+0  15313-2 0  9993",
        "tle_line2": "2 34097  86.2003 356.4244 0081482 325.2171  34.3712 14.34864137872813"
      },
      "geometry": {
        "type": "Point",
        "coordinates": [
          162.5342513231682,
          73.98641508304594
        ]
      }
    },
    {
      "type": "Feature",
      "properties": {
        "norad_id": 34145,
        "name": "IRIDIUM 33 DEB",
        "group": "iridium-33-debris",
        "lat": -11.174252705178628,
        "lon": -33.756651384024465,
        "alt_km": 738.2546501580337,
        "timestamp": "2025-12-25T03:55:56.751605+00:00",
        "meta_object_name": "IRIDIUM 33 DEB",
        "meta_object_id": "1997-051DY",
        "meta_epoch": "2025-12-23T08:41:39.975936",
        "meta_mean_motion": 14.42361739,
        "meta_eccentricity": 0.00555944,
        "meta_inclination": 86.2126,
        "meta_ra_of_asc_node": 327.7951,
        "meta_arg_of_pericenter": 60.0799,
        "meta_mean_anomaly": 300.5906,
        "meta_ephemeris_type": 0,
        "meta_classification_type": "U",
        "meta_norad_cat_id": 34145,
        "meta_element_set_no": 999,
        "meta_rev_at_epoch": 87791,
        "meta_bstar": 0.0012419771,
        "meta_mean_motion_dot": 4.2e-05,
        "meta_mean_motion_ddot": 0,
        "tle_line1": "1 34145U 97051DY  25357.36226824  .00004200  00000+0  12420-2 0  9990",
        "tle_line2": "2 34145  86.2126 327.7951 0055594  60.0799 300.5906 14.42361739877912"
      },
      "geometry": {
        "type": "Point",
        "coordinates": [
          -33.756651384024465,
          -11.174252705178628
        ]
      }
    },
    {
      "type": "Feature",
      "properties": {
        "norad_id": 34146,
        "name": "IRIDIUM 33 DEB",
        "group": "iridium-33-debris",
        "lat": -70.52979618662339,
        "lon": -26.28130898188609,
        "alt_km": 742.4482007933948,
        "timestamp": "2025-12-25T03:55:56.751615+00:00",
        "meta_object_name": "IRIDIUM 33 DEB",
        "meta_object_id": "1997-051DZ",
        "meta_epoch": "2025-12-24T07:01:03.056736",
        "meta_mean_motion": 14.49120494,
        "meta_eccentricity": 0.00267715,
        "meta_inclination": 86.2841,
        "meta_ra_of_asc_node": 344.6961,
        "meta_arg_of_pericenter": 181.7389,
        "meta_mean_anomaly": 243.8071,
        "meta_ephemeris_type": 0,
        "meta_classification_type": "U",
        "meta_norad_cat_id": 34146,
        "meta_element_set_no": 999,
        "meta_rev_at_epoch": 88274,
        "meta_bstar": 0.00090944311,
        "meta_mean_motion_dot": 3.492e-05,
        "meta_mean_motion_ddot": 0,
        "tle_line1": "1 34146U 97051DZ  25358.29239649  .00003492  00000+0  90944-3 0  9993",
        "tle_line2": "2 34146  86.2841 344.6961 0026771 181.7389 243.8071 14.49120494882744"
      },
      "geometry": {
        "type": "Point",
        "coordinates": [
          -26.28130898188609,
          -70.52979618662339
        ]
      }
    },
    {
      "type": "Feature",
      "properties": {
        "norad_id": 34159,
        "name": "IRIDIUM 33 DEB",
        "group": "iridium-33-debris",
        "lat": -70.94240484404013,
        "lon": -126.40618539987537,
        "alt_km": 752.1930656744626,
        "timestamp": "2025-12-25T03:55:56.751626+00:00",
        "meta_object_name": "IRIDIUM 33 DEB",
        "meta_object_id": "1997-051EN",
        "meta_epoch": "2025-12-24T20:05:20.636160",
        "meta_mean_motion": 14.38522159,
        "meta_eccentricity": 0.0026208,
        "meta_inclination": 86.3491,
        "meta_ra_of_asc_node": 43.0823,
        "meta_arg_of_pericenter": 245.0381,
        "meta_mean_anomaly": 114.8094,
        "meta_ephemeris_type": 0,
        "meta_classification_type": "U",
        "meta_norad_cat_id": 34159,
        "meta_element_set_no": 999,
        "meta_rev_at_epoch": 88133,
        "meta_bstar": 0.00037253,
        "meta_mean_motion_dot": 1.162e-05,
        "meta_mean_motion_ddot": 0,
        "tle_line1": "1 34159U 97051EN  25358.83704440  .00001162  00000+0  37253-3 0  9999",
        "tle_line2": "2 34159  86.3491  43.0823 0026208 245.0381 114.8094 14.38522159881336"
      },
      "geometry": {
        "type": "Point",
        "coordinates": [
          -126.40618539987537,
          -70.94240484404013
        ]
      }
    },
    {
      "type": "Feature",
      "properties": {
        "norad_id": 34350,
        "name": "IRIDIUM 33 DEB",
        "group": "iridium-33-debris",
        "lat": -47.96193355756158,
        "lon": -178.49901512269346,
        "alt_km": 758.561294182331,
        "timestamp": "2025-12-25T03:55:56.751636+00:00",
        "meta_object_name": "IRIDIUM 33 DEB",
        "meta_object_id": "1997-051ES",
        "meta_epoch": "2025-12-24T00:32:43.402848",
        "meta_mean_motion": 14.45412169,
        "meta_eccentricity": 0.00234875,
        "meta_inclination": 86.3272,
        "meta_ra_of_asc_node": 357.9107,
        "meta_arg_of_pericenter": 100.6701,
        "meta_mean_anomaly": 313.0828,
        "meta_ephemeris_type": 0,
        "meta_classification_type": "U",
        "meta_norad_cat_id": 34350,
        "meta_element_set_no": 999,
        "meta_rev_at_epoch": 88456,
        "meta_bstar": 0.00031816232,
        "meta_mean_motion_dot": 1.143e-05,
        "meta_mean_motion_ddot": 0,
        "tle_line1": "1 34350U 97051ES  25358.02272457  .00001143  00000+0  31816-3 0  9999",
        "tle_line2": "2 34350  86.3272 357.9107 0023487 100.6701 313.0828 14.45412169884569"
      },
      "geometry": {
        "type": "Point",
        "coordinates": [
          -178.49901512269346,
          -47.96193355756158
        ]
      }
    }
  ]
}